SHIYAN-1 (SY-1)         
1 28220U 04012A   26068.73650539  .00016393  00000+0  54854-3 0  9991
2 28220  97.8764 140.5238 0005873  23.6952 336.4557 15.31043463195862
STARLINK-36048          
1 66603U 25270R   26068.00252746  .00025947  00000+0  94906-3 0  9992
2 66603  42.9969  59.8093 0000627 273.9101  86.1679 15.27580914 17506
